ORBCOMM-X               
1 21576U 91050C   25359.15686861  .00000340  00000+0  11333-3 0  9991
2 21576  98.3211  61.6500 0003083 347.9933  12.1183 14.43445278809664
ORBCOMM FM01            
1 23545U 95017A   25359.28041885  .00008095  00000+0  77979-3 0  9994
2 23545  69.9633 316.6118 0004420 328.5302  31.5589 14.93261656641001
ORBCOMM FM02            
1 23546U 95017B   25359.20801662  .00012787  00000+0  11764-2 0  9996
2 23546  69.9649 335.3449 0005656 341.7662  18.3291 14.94891749640669
ORBCOMM FM08            
1 25112U 97084A   25358.84427853  .00001290  00000+0  39381-3 0  9991
2 25112  45.0117 172.1041 0007004 138.0681 222.0708 14.46628574468977
ORBCOMM FM10            
1 25113U 97084B   25358.92442747  .00001291  00000+0  39620-3 0  9997
2 25113  45.0133 174.4547 0005224 107.3611 252.7812 14.46373602644124
ORBCOMM FM11            
1 25114U 97084C   25358.54814685  .00001267  00000+0  39147-3 0  9997
2 25114  45.0116 177.2484 0006029 105.3344 254.8174 14.46116541469027
ORBCOMM FM12            
1 25115U 97084D   25358.23158016  .00001184  00000+0  36833-3 0  9990
2 25115  45.0122 178.4993 0005110 101.9503 258.1921 14.46137928468772
ORBCOMM FM09            
1 25116U 97084E   25358.83472854  .00001071  00000+0  33817-3 0  9990
2 25116  45.0128 176.7450 0006171  93.1987 266.9571 14.45976389469066
